{
  "type": "FeatureCollection",
  "features": [
    {
      "type": "Feature",
      "properties": {
        "norad_id": 41330,
        "name": "COSMOS 2514 (751)",
        "group": "gnss",
        "lat": 62.56650129155984,
        "lon": 22.189723772594395,
        "alt_km": 19146.413075960223,
        "timestamp": "2025-12-26T05:31:12.749505+00:00",
        "meta_object_name": "COSMOS 2514 (751)",
        "meta_object_id": "2016-008A",
        "meta_epoch": "2025-12-24T06:01:31.134720",
        "meta_mean_motion": 2.13102586,
        "meta_eccentricity": 0.00116213,
        "meta_inclination": 65.1271,
        "meta_ra_of_asc_node": 319.0099,
        "meta_arg_of_pericenter": 220.0868,
        "meta_mean_anomaly": 139.8285,
        "meta_ephemeris_type": 0,
        "meta_classification_type": "U",
        "meta_norad_cat_id": 41330,
        "meta_element_set_no": 999,
        "meta_rev_at_epoch": 7689,
        "meta_bstar": 0,
        "meta_mean_motion_dot": -3.3e-07,
        "meta_mean_motion_ddot": 0,
        "tle_line1": "1 41330U 16008A   25358.25105480 -.00000033  00000+0  00000+0 0  9999",
        "tle_line2": "2 41330  65.1271 319.0099 0011621 220.0868 139.8285  2.13102586 76897"
      },
      "geometry": {
        "type": "Point",
        "coordinates": [
          22.189723772594395,
          62.56650129155984
        ]
      }
    },
    {
      "type": "Feature",
      "properties": {
        "norad_id": 41384,
        "name": "IRNSS-1F",
        "group": "gnss",
        "lat": 4.639883422954795,
        "lon": -149.8415124725296,
        "alt_km": 35755.4008237854,
        "timestamp": "2025-12-26T05:31:12.749518+00:00",
        "meta_object_name": "IRNSS-1F",
        "meta_object_id": "2016-015A",
        "meta_epoch": "2025-12-24T23:31:33.658752",
        "meta_mean_motion": 1.00278532,
        "meta_eccentricity": 0.00226614,
        "meta_inclination": 4.9118,
        "meta_ra_of_asc_node": 100.9953,
        "meta_arg_of_pericenter": 182.2729,
        "meta_mean_anomaly": 195.8977,
        "meta_ephemeris_type": 0,
        "meta_classification_type": "U",
        "meta_norad_cat_id": 41384,
        "meta_element_set_no": 999,
        "meta_rev_at_epoch": 3592,
        "meta_bstar": 0,
        "meta_mean_motion_dot": 1.78e-06,
        "meta_mean_motion_ddot": 0,
        "tle_line1": "1 41384U 16015A   25358.98025068  .00000178  00000+0  00000+0 0  9998",
        "tle_line2": "2 41384   4.9118 100.9953 0022661 182.2729 195.8977  1.00278532 35923"
      },
      "geometry": {
        "type": "Point",
        "coordinates": [
          -149.8415124725296,
          4.639883422954795
        ]
      }
    },
    {
      "type": "Feature",
      "properties": {
        "norad_id": 41434,
        "name": "BEIDOU-2 IGSO-6 (C13)",
        "group": "gnss",
        "lat": -42.792799403554554,
        "lon": -107.86397144306574,
        "alt_km": 35529.26184445481,
        "timestamp": "2025-12-26T05:31:12.749530+00:00",
        "meta_object_name": "BEIDOU-2 IGSO-6 (C13)",
        "meta_object_id": "2016-021A",
        "meta_epoch": "2025-12-25T02:21:14.682240",
        "meta_mean_motion": 1.00290736,
        "meta_eccentricity": 0.00608236,
        "meta_inclination": 59.9818,
        "meta_ra_of_asc_node": 39.7747,
        "meta_arg_of_pericenter": 230.5129,
        "meta_mean_anomaly": 312.5474,
        "meta_ephemeris_type": 0,
        "meta_classification_type": "U",
        "meta_norad_cat_id": 41434,
        "meta_element_set_no": 999,
        "meta_rev_at_epoch": 3573,
        "meta_bstar": 0,
        "meta_mean_motion_dot": -1.35e-06,
        "meta_mean_motion_ddot": 0,
        "tle_line1": "1 41434U 16021A   25359.09808660 -.00000135  00000+0  00000+0 0  9995",
        "tle_line2": "2 41434  59.9818  39.7747 0060823 230.5129 312.5474  1.00290736 35738"
      },
      "geometry": {
        "type": "Point",
        "coordinates": [
          -107.86397144306574,
          -42.792799403554554
        ]
      }
    },
    {
      "type": "Feature",
      "properties": {
        "norad_id": 41469,
        "name": "IRNSS-1G",
        "group": "gnss",
        "lat": -2.0753498010995295,
        "lon": -52.75280293783053,
        "alt_km": 35791.82348294847,
        "timestamp": "2025-12-26T05:31:12.749542+00:00",
        "meta_object_name": "IRNSS-1G",
        "meta_object_id": "2016-027A",
        "meta_epoch": "2025-12-25T19:59:21.836832",
        "meta_mean_motion": 1.00273523,
        "meta_eccentricity": 0.00027082,
        "meta_inclination": 4.7666,
        "meta_ra_of_asc_node": 101.7633,
        "meta_arg_of_pericenter": 326.3676,
        "meta_mean_anomaly": 95.8651,
        "meta_ephemeris_type": 0,
        "meta_classification_type": "U",
        "meta_norad_cat_id": 41469,
        "meta_element_set_no": 999,
        "meta_rev_at_epoch": 3544,
        "meta_bstar": 0,
        "meta_mean_motion_dot": -3.14e-06,
        "meta_mean_motion_ddot": 0,
        "tle_line1": "1 41469U 16027A   25359.83289163 -.00000314  00000+0  00000+0 0  9991",
        "tle_line2": "2 41469   4.7666 101.7633 0002708 326.3676  95.8651  1.00273523 35449"
      },
      "geometry": {
        "type": "Point",
        "coordinates": [
          -52.75280293783053,
          -2.0753498010995295
        ]
      }
    },
    {
      "type": "Feature",
      "properties": {
        "norad_id": 41549,
        "name": "GSAT0211 (GALILEO 14)",
        "group": "gnss",
        "lat": -49.55636897267032,
        "lon": 171.6546438948081,
        "alt_km": 23226.61457449976,
        "timestamp": "2025-12-26T05:31:12.749553+00:00",
        "meta_object_name": "GSAT0211 (GALILEO 14)",
        "meta_object_id": "2016-030A",
        "meta_epoch": "2025-12-23T23:52:07.352256",
        "meta_mean_motion": 1.70473256,
        "meta_eccentricity": 0.0004011,
        "meta_inclination": 55.1486,
        "meta_ra_of_asc_node": 226.5135,
        "meta_arg_of_pericenter": 16.1635,
        "meta_mean_anomaly": 343.9466,
        "meta_ephemeris_type": 0,
        "meta_classification_type": "U",
        "meta_norad_cat_id": 41549,
        "meta_element_set_no": 999,
        "meta_rev_at_epoch": 5968,
        "meta_bstar": 0,
        "meta_mean_motion_dot": 7.2e-07,
        "meta_mean_motion_ddot": 0,
        "tle_line1": "1 41549U 16030A   25357.99452954  .00000072  00000+0  00000+0 0  9999",
        "tle_line2": "2 41549  55.1486 226.5135 0004011  16.1635 343.9466  1.70473256 59684"
      },
      "geometry": {
        "type": "Point",
        "coordinates": [
          171.6546438948081,
          -49.55636897267032
        ]
      }
    },
    {
      "type": "Feature",
      "properties": {
        "norad_id": 41550,
        "name": "GSAT0210 (GALILEO 13)",
        "group": "gnss",
        "lat": 36.151404469714585,
        "lon": 15.869988092410557,
        "alt_km": 23216.582933191057,
        "timestamp": "2025-12-26T05:31:12.749563+00:00",
        "meta_object_name": "GSAT0210 (GALILEO 13)",
        "meta_object_id": "2016-030B",
        "meta_epoch": "2025-12-24T20:07:27.603552",
        "meta_mean_motion": 1.70473396,
        "meta_eccentricity": 5.683e-05,
        "meta_inclination": 55.1478,
        "meta_ra_of_asc_node": 226.4883,
        "meta_arg_of_pericenter": 175.0994,
        "meta_mean_anomaly": 184.9941,
        "meta_ephemeris_type": 0,
        "meta_classification_type": "U",
        "meta_norad_cat_id": 41550,
        "meta_element_set_no": 999,
        "meta_rev_at_epoch": 5969,
        "meta_bstar": 0,
        "meta_mean_motion_dot": 7.1e-07,
        "meta_mean_motion_ddot": 0,
        "tle_line1": "1 41550U 16030B   25358.83851393  .00000071  00000+0  00000+0 0  9994",
        "tle_line2": "2 41550  55.1478 226.4883 0000568 175.0994 184.9941  1.70473396 59699"
      },
      "geometry": {
        "type": "Point",
        "coordinates": [
          15.869988092410557,
          36.151404469714585
        ]
      }
    },
    {
      "type": "Feature",
      "properties": {
        "norad_id": 41586,
        "name": "BEIDOU-2 G7 (C03)",
        "group": "gnss",
        "lat": -1.1739524850226073,
        "lon": -71.86136333054168,
        "alt_km": 35804.191275156285,
        "timestamp": "2025-12-26T05:31:12.749575+00:00",
        "meta_object_name": "BEIDOU-2 G7 (C03)",
        "meta_object_id": "2016-037A",
        "meta_epoch": "2025-12-25T22:09:08.222976",
        "meta_mean_motion": 1.00268204,
        "meta_eccentricity": 0.00051777,
        "meta_inclination": 1.7871,
        "meta_ra_of_asc_node": 67.9012,
        "meta_arg_of_pericenter": 0.645,
        "meta_mean_anomaly": 108.832,
        "meta_ephemeris_type": 0,
        "meta_classification_type": "U",
        "meta_norad_cat_id": 41586,
        "meta_element_set_no": 999,
        "meta_rev_at_epoch": 515,
        "meta_bstar": 0,
        "meta_mean_motion_dot": -3.32e-06,
        "meta_mean_motion_ddot": 0,
        "tle_line1": "1 41586U 16037A   25359.92301184 -.00000332  00000+0  00000+0 0  9990",
        "tle_line2": "2 41586   1.7871  67.9012 0005177   0.6450 108.8320  1.00268204  5156"
      },
      "geometry": {
        "type": "Point",
        "coordinates": [
          -71.86136333054168,
          -1.1739524850226073
        ]
      }
    }
  ]
}